STARLINK-1505
1 25783C 20038BF  21325.17916014  .00004089  00000-0  27389-3 0  3258
2 25783  53.0538  42.4176 0001162  74.1940 144.2024 15.06401716    11
